EROS C3                 
1 54880U 22179A   26198.89031943  .00002970  00000+0  16019-3 0  9996
2 54880 139.3347 180.2912 0007849 199.1421 160.9092 15.11048740196975
