{"fetched_at":"2026-07-18T17:29:49.478Z","source":"https://celestrak.org/NORAD/elements/gp.php?NAME=EROS&FORMAT=JSON","constellation":"eros","records":[{"OBJECT_NAME":"EROS C3","OBJECT_ID":"2022-179A","EPOCH":"2026-07-17T21:22:03.598752","CLASSIFICATION_TYPE":"U","MEAN_MOTION":15.1104874,"ECCENTRICITY":0.00078499,"INCLINATION":139.3347,"RA_OF_ASC_NODE":180.2912,"ARG_OF_PERICENTER":199.1421,"MEAN_ANOMALY":160.9092,"EPHEMERIS_TYPE":0,"NORAD_CAT_ID":54880,"ELEMENT_SET_NO":999,"REV_AT_EPOCH":19697,"BSTAR":0.00016018931,"MEAN_MOTION_DOT":0.0000297,"MEAN_MOTION_DDOT":0}]}
